satname,norad_id,inclination_deg,eccentricity,mean_motion_rev_per_day,perigee_km,apogee_km,l1,l2
STARLINK-1255,45399,53.0541,0.0001242,15.06386283,546.3934653742999,548.1137323990633,1 45399U 20019AR  25253.35288001 -.00000279  00000+0  14580-6 0  9998,2 45399  53.0541 226.1829 0001242  89.3528 270.7603 15.06386283302770
STARLINK-1259,45403,53.0497,0.0010626,15.78506132,327.5395160436292,341.80557889391093,1 45403U 20019AV  25253.58335648  .00177397  00000+0  98107-3 0  9998,2 45403  53.0497 194.4729 0010626  48.3367  44.1257 15.78506132  5969
STARLINK-1260,45404,53.0536,0.0001476,15.06400737,546.1871180265925,548.2314802540996,1 45404U 20019AW  25253.31968598  .00000066  00000+0  23339-4 0  9990,2 45404  53.0536 226.3344 0001476  86.9881 273.1277 15.06400737302673
STARLINK-1263,45405,53.0546,0.0001323,15.06400105,546.2950125567795,548.1274597000584,1 45405U 20019AX  25253.37128693  .00000547  00000+0  55618-4 0  9990,2 45405  53.0546 226.0999 0001323  78.8417 281.2720 15.06400105302687
STARLINK-1265,45406,53.0541,0.0001403,15.06398673,546.2439980318513,548.1872519784274,1 45406U 20019AY  25253.31231790  .00000924  00000+0  80940-4 0  9993,2 45406  53.0541 226.3656 0001403  92.8220 267.2930 15.06398673302675
STARLINK-1278,45408,53.0545,0.0001329,15.06391375,546.317610110681,548.1583747836739,1 45408U 20019BA  25253.40538422 -.00002610  00000+0 -15645-3 0  9992,2 45408  53.0545 255.9496 0001329  91.2647 268.8494 15.06391375302274
STARLINK-1296,45412,53.0542,0.0001503,15.06390606,546.199465129308,548.2812335605213,1 45412U 20019BE  25253.31601289  .00000466  00000+0  50166-4 0  9992,2 45412  53.0542 226.3489 0001503  89.9048 270.2113 15.06390606302678
STARLINK-1298,45413,53.0522,0.000886,15.40452517,438.727712747449,450.8179089322566,1 45413U 20019BF  25253.31674091  .00125637  00000+0  30122-2 0  9990,2 45413  53.0522 216.8973 0008860  50.4599 309.7186 15.40452517302908
STARLINK-1309,45414,53.0543,0.0001283,15.06394255,546.3406411127589,548.1176900708506,1 45414U 20019BG  25252.66727451  .00000176  00000+0  30730-4 0  9994,2 45414  53.0543 229.2617 0001283  90.0517 270.0619 15.06394255302566
STARLINK-1316,45415,53.054,0.0001465,15.06395691,546.2101989356579,548.2393299326377,1 45415U 20019BH  25253.35654186 -.00000472  00000+0 -12813-4 0  9999,2 45415  53.0540 226.1629 0001465  88.9883 271.1274 15.06395691302707
STARLINK-1318,45416,53.0544,0.0001127,15.54707666,402.2383069542484,403.76677580687556,1 45416U 20019BJ  25253.28314229  .00038425  00000+0  57338-3 0  9990,2 45416  53.0544 212.6776 0001127 104.3707 255.7428 15.54707666302877
STARLINK-1286,45417,53.0533,0.0001125,15.06403934,546.4204004647745,547.9786011774595,1 45417U 20019BK  25252.99624869  .00001494  00000+0  11918-3 0  9992,2 45417  53.0533 257.7868 0001125  87.4995 272.6123 15.06403934302481
STARLINK-1308,45419,53.0535,0.0001228,15.06396861,546.370744553561,548.0716125222089,1 45419U 20019BM  25253.39063806 -.00000350  00000+0 -46090-5 0  9990,2 45419  53.0535 256.0166 0001228  87.1720 272.9409 15.06396861302294
STARLINK-1329,45531,53.0553,0.0001399,15.0640232,546.2355922130428,548.1733027500468,1 45531U 20025A   25253.22661293  .00000709  00000+0  66469-4 0  9995,2 45531  53.0553 196.7490 0001399  95.3973 264.7176 15.06402320297896
STARLINK-1338,45532,53.0542,0.0001767,15.06399428,545.9896016364892,548.4370204364086,1 45532U 20025B   25253.23767027 -.00000100  00000+0  12226-4 0  9997,2 45532  53.0542 196.6977 0001767 117.6037 242.5131 15.06399428297891
STARLINK-1350,45535,53.0759,0.0003103,15.30798823,471.3016342425053,475.55371527966236,1 45535U 20025E   25252.99525090  .00007300  00000+0  25367-3 0  9991,2 45535  53.0759 158.3287 0003103  95.1348 265.0006 15.30798823298435
STARLINK-1362,45538,53.0548,0.0001463,15.06404288,546.1852392956953,548.2115924383779,1 45538U 20025H   25253.26986663  .00001014  00000+0  86942-4 0  9995,2 45538  53.0548 196.2728 0001463  90.5658 269.5499 15.06404288297903
STARLINK-1368,45540,53.054,0.000143,15.06406173,546.2023165086321,548.1829607852851,1 45540U 20025K   25253.27452688  .00000808  00000+0  73101-4 0  9997,2 45540  53.0540 196.5323 0001430  87.2967 272.8186 15.06406173297895
STARLINK-1371,45542,53.0537,0.0001473,15.06396564,546.2019834096391,548.2421941972007,1 45542U 20025M   25253.24505295  .00004387  00000+0  31324-3 0  9995,2 45542  53.0537 196.6675 0001473  86.7691 273.3467 15.06396564297899
STARLINK-1372,45543,53.0553,0.0001649,15.06396656,546.0798151683639,548.3637985028581,1 45543U 20025N   25253.21556976  .00004011  00000+0  28802-3 0  9996,2 45543  53.0553 196.7976 0001649  94.6367 265.4811 15.06396656296982
STARLINK-1373,45544,53.0551,0.0001695,15.06388547,546.0728074257777,548.420512486502,1 45544U 20025P   25252.57052775 -.00000573  00000+0 -19570-4 0  9997,2 45544  53.0551 199.6971 0001695  88.7526 271.3657 15.06388547297794
STARLINK-1294,45551,53.0514,0.0005637,15.48626273,416.91125463659046,424.57631283217324,1 45551U 20025W   25253.13313206  .00097525  00000+0  17809-2 0  9999,2 45551  53.0514 147.9466 0005637 148.1880 211.9469 15.48626273298575
STARLINK-1323,45553,53.0374,0.0008555,15.85056393,310.43897624222063,321.8929285938066,1 45553U 20025Y   25253.58335648  .00200546  00000+0  81651-3 0  9990,2 45553  53.0374 131.5517 0008555  69.5879 322.9905 15.85056393  5994
STARLINK-1325,45554,53.0606,0.0001128,15.45220833,429.96123524203085,431.49731547375086,1 45554U 20025Z   25252.97179459  .00047179  00000+0  98033-3 0  9992,2 45554  53.0606 140.1616 0001128 159.3472 200.7580 15.45220833298674
STARLINK-1327,45555,53.0555,0.0001524,15.06402922,546.1471806881864,548.2580241990108,1 45555U 20025AA  25253.20633883  .00001461  00000+0  11696-3 0  9990,2 45555  53.0555 176.8388 0001524  95.2350 264.8813 15.06402922298165
STARLINK-1336,45557,53.0393,0.001034,15.79614944,324.5930085657583,338.4686015866555,1 45557U 20025AC  25253.58335648  .00171038  00000+0  90058-3 0  9998,2 45557  53.0393 136.6871 0010340  80.1646 262.0206 15.79614944  5964
STARLINK-1342,45558,53.0452,0.0007683,15.88323072,301.8479132168213,312.1202702864084,1 45558U 20025AD  25253.58335648  .00314911  00000+0  10781-2 0  9992,2 45558  53.0452 134.0107 0007683  80.3882 312.0740 15.88323072  5996
STARLINK-1355,45563,53.0337,0.0006486,16.01642785,265.5570644760119,274.18085780880665,1 45563U 20025AJ  25253.99000682  .00408123  83962-4  71010-3 0  9995,2 45563  53.0337  61.6597 0006486 291.5601  68.4738 16.01642785299846
STARLINK-1356,45564,53.0544,0.0001315,15.06407934,546.2765613399552,548.0979216154628,1 45564U 20025AK  25252.94464248  .00002270  00000+0  17122-3 0  9996,2 45564  53.0544 178.0116 0001315  99.4156 260.6982 15.06407934298129
STARLINK-1357,45565,53.0681,0.0008448,15.24241741,487.25849351485977,498.868073513886,1 45565U 20025AL  25253.04136522  .00036634  00000+0  14873-2 0  9990,2 45565  53.0681 170.3147 0008448  77.4922 282.7019 15.24241741298243
STARLINK-1361,45567,53.0542,0.0001404,15.06408543,546.2130597359837,548.1576902588831,1 45567U 20025AN  25253.09575803  .00001406  00000+0  11325-3 0  9995,2 45567  53.0542 177.3362 0001404  81.9145 278.2003 15.06408543298157
STARLINK-1363,45568,53.0542,0.0001611,15.06414019,546.0529253247141,548.2842587864743,1 45568U 20025AP  25253.17687813  .00002077  00000+0  15826-3 0  9995,2 45568  53.0542 177.2154 0001611  93.1654 266.9520 15.06414019298159
STARLINK-1366,45569,53.0555,0.0001489,15.06408717,546.1536612953541,548.2160221398171,1 45569U 20025AQ  25253.23214142  .00000464  00000+0  50028-4 0  9996,2 45569  53.0555 176.7239 0001489  93.0628 267.0532 15.06408717298169
STARLINK-1376,45570,53.055,0.000153,15.0640767,546.1284758599613,548.2476253254436,1 45570U 20025AR  25253.09207555  .00002570  00000+0  19132-3 0  9992,2 45570  53.0550 177.3531 0001530  88.9216 271.1948 15.06407670298143
STARLINK-1320,45572,53.0624,0.0008623,15.34004013,457.9805785495337,469.78032184414315,1 45572U 20025AT  25253.39135030  .00024935  00000+0  75530-3 0  9998,2 45572  53.0624 130.7863 0008623 129.9795 230.1964 15.34004013298841
STARLINK-1321,45573,53.0545,0.0001364,15.06410163,546.2357966874142,548.1250232768571,1 45573U 20025AU  25253.14459795  .00005617  00000+0  39560-3 0  9998,2 45573  53.0545 167.1172 0001364  97.2887 262.8257 15.06410163297993
STARLINK-1328,45576,53.0544,0.000146,15.5217752,409.3785386117497,411.3607825566405,1 45576U 20025AX  25253.58335648  .00135080  00000+0  21630-2 0  9995,2 45576  53.0544 160.7138 0001460 124.7434 283.8878 15.52177520  5792
STARLINK-1331,45578,53.0542,0.0001392,15.06411266,546.2130257731669,548.1410331989764,1 45578U 20025AZ  25253.05613382  .00001963  00000+0  15058-3 0  9993,2 45578  53.0542 167.5146 0001392  95.3844 264.7304 15.06411266298296
STARLINK-1333,45580,53.054,0.000114,15.06406976,546.4006902872698,547.9796648837582,1 45580U 20025BB  25253.19528596  .00004530  00000+0  32278-3 0  9999,2 45580  53.0540 176.8895 0001140  90.1537 269.9583 15.06406976298168
STARLINK-1335,45581,53.0541,0.0001293,15.06393306,546.3366239388488,548.1275243814271,1 45581U 20025BC  25252.93451391  .00004181  00000+0  29946-3 0  9999,2 45581  53.0541 168.0605 0001293  96.0850 264.0286 15.06393306298263
STARLINK-1337,45582,53.0542,0.0001424,15.06383636,546.275534918901,548.2478884719922,1 45582U 20025BD  25253.15567761 -.00000960  00000+0 -45615-4 0  9999,2 45582  53.0542 167.0686 0001424  86.0010 274.1142 15.06383636298297
STARLINK-1347,45586,53.0584,0.0007617,15.23539161,489.9401547690577,500.410959118306,1 45586U 20025BH  25253.14599211  .00022139  00000+0  92524-3 0  9997,2 45586  53.0584 160.0935 0007617  83.1400 277.0463 15.23539161298381
STARLINK-1349,45587,53.04,0.0001235,16.09295748,247.95752070711842,249.59436820439896,1 45587U 20025BJ  25253.64624662  .00634384  22031-3  68950-3 0  9991,2 45587  53.0400 113.9857 0001235 245.0473 115.0432 16.09295748299088
